SL-16 R/B               
1 23405U 94077B   26197.65814568  .00000005  00000+0  26842-4 0  9999
2 23405  70.9821  81.1617 0004091 302.2859  57.7867 14.15574280634482
ARIANE 40+ R/B          
1 23561U 95021B   26197.43979418  .00000113  00000+0  49811-4 0  9995
2 23561  98.4400 267.0904 0007929 113.3282 257.0468 14.39847956637777
SL-16 R/B               
1 23705U 95058B   26197.60067121  .00000238  00000+0  14622-3 0  9992
2 23705  71.0209 269.6046 0014624 281.0002  78.9476 14.15509477586093
SL-16 R/B               
1 24298U 96051B   26197.49221360  .00000155  00000+0  11070-3 0  9990
2 24298  70.7645 262.6323 0017887 296.4154  63.5129 14.12456993539830
ORBVIEW 2 (SEASTAR)     
1 24883U 97037A   26197.43288969  .00000083  00000+0  45064-4 0  9998
2 24883  98.8714   5.2664 0003060  58.4586 301.6897 14.35567092526944
SL-16 R/B               
1 25400U 98043G   26197.48028133 -.00000002  00000+0  18366-4 0  9999
2 25400  98.8380 151.8942 0009955   7.8656 352.2678 14.26072852457342
SL-16 R/B               
1 25407U 98045B   26197.47771381 -.00000140  00000+0 -46621-4 0  9996
2 25407  71.0107 270.7315 0008118 204.7449 155.3286 14.16205054445336
ISS (ZARYA)             
1 25544U 98067A   26197.34703595  .00003465  00000+0  70975-4 0  9990
2 25544  51.6312 155.7848 0006753 302.1556  57.8777 15.49022210576275
CZ-4B R/B               
1 25732U 99025C   26197.12492171  .00000004  00000+0  22978-4 0  9991
2 25732  98.6471 238.2330 0036586 337.0233  42.5941 14.18287818406379
OKEAN-O                 
1 25860U 99039A   26197.61255098  .00000261  00000+0  40894-4 0  9999
2 25860  97.9301 256.0703 0000873  90.5104 269.6208 14.80498340453468
SL-16 R/B               
1 25861U 99039B   26197.60703564  .00000227  00000+0  35437-4 0  9994
2 25861  97.9823 256.3838 0014422 193.7470 166.3352 14.81871578455955
DELTA 2 R/B             
1 25876U 99041E   26197.26648253  .00001125  00000+0  21941-3 0  9990
2 25876  51.7611 147.6160 0501406   7.9199 352.9288 14.12087498381190
HELIOS 1B               
1 25977U 99064A   26197.29496690  .00000618  00000+0  73596-4 0  9996
2 25977  98.1583 103.2743 0001867  53.0574 307.0812 14.88076462704381
TERRA                   
1 25994U 99068A   26197.62064881  .00000168  00000+0  43069-4 0  9991
2 25994  97.9441 245.9975 0003471 119.7743  41.0394 14.61124329413904
SL-16 R/B               
1 26070U 00006B   26197.38517399 -.00000075  00000+0 -13690-4 0  9997
2 26070  71.0002 187.2308 0017229 338.3421  21.6972 14.15837929366776
TITAN 4B R/B            
1 26474U 00047B   26197.59743394  .00001186  00000+0  78924-4 0  9992
2 26474  67.9873  37.7794 0045792 257.3649 102.2379 15.10336892412374
ENVISAT                 
1 27386U 02009A   26197.61227066  .00000019  00000+0  19919-4 0  9994
2 27386  98.3846 148.2769 0001324  82.8224  90.1259 14.39070894277714
IDEFIX & ARIANE 42P R/B 
1 27422U 02021B   26197.42474845  .00000084  00000+0  48302-4 0  9997
2 27422  98.5942 134.5918 0011969 162.9059 197.2529 14.31094045262438
AQUA                    
1 27424U 02022A   26197.28834417  .00000341  00000+0  77532-4 0  9992
2 27424  98.4296 167.1566 0000983 113.3067  21.1629 14.62197882287525
CZ-4B R/B               
1 27432U 02024C   26197.60742409 -.00000001  00000+0  22407-4 0  9993
2 27432  98.8685 250.2340 0050398  18.0090 109.8005 14.14568381247460
MIDORI II (ADEOS-II)    
1 27597U 02056A   26197.46857476  .00000088  00000+0  52509-4 0  9995
2 27597  98.7895 156.9802 0001424  39.5466 320.5819 14.29363387228694
H-2A R/B                
1 27601U 02056E   26197.47009837  .00000113  00000+0  54064-4 0  9999
2 27601  98.3329 153.0798 0070953 137.1643 333.4106 14.33834300232561
CZ-4B R/B               
1 28059U 03049C   26197.45575899  .00000116  00000+0  38393-4 0  9994
2 28059  98.6910 197.4692 0047719 197.3743 162.5823 14.55116533205322
CZ-2C R/B               
1 28222U 04012C   26197.19166958  .00099037  00000+0  41106-3 0  9995
2 28222  97.7046 276.3698 0011156 187.7372 172.3727 15.85417619224487
SL-16 R/B               
1 28353U 04021B   26197.50673069 -.00000063  00000+0 -81584-5 0  9990
2 28353  71.0029 322.1561 0006264 223.9967 136.0658 14.14616513141050
CZ-4B R/B               
1 28415U 04035C   26197.54748937  .00003995  00000+0  13429-3 0  9991
2 28415  97.3353 230.2959 0029342 227.6036 132.2723 15.31002767199616
CZ-2C R/B               
1 28480U 04046B   26197.64065339  .00000062  00000+0  37846-4 0  9996
2 28480  98.1914 104.5765 0140205 133.1461 228.1544 14.27033467126894
ARIANE 5 R/B            
1 28499U 04049H   26197.49885569  .00000199  00000+0  28989-4 0  9996
2 28499  98.2742  10.8890 0082597 293.9957  65.2626 14.85479624164915
CZ-2D R/B               
1 28738U 05024B   26197.32436068  .00040167  00000+0  29721-3 0  9997
2 28738  97.3467 218.2783 0002619 189.5497 170.5717 15.72846217159914
ALOS (DAICHI)           
1 28931U 06002A   26197.42627535  .00000461  00000+0  84988-4 0  9991
2 28931  98.1339 152.9061 0000847 102.5582 257.5718 14.70103207 92397
