OBJECT_NAME,OBJECT_ID,EPOCH,MEAN_MOTION,ECCENTRICITY,INCLINATION,RA_OF_ASC_NODE,ARG_OF_PERICENTER,MEAN_ANOMALY,EPHEMERIS_TYPE,CLASSIFICATION_TYPE,NORAD_CAT_ID,ELEMENT_SET_NO,REV_AT_EPOCH,BSTAR,MEAN_MOTION_DOT,MEAN_MOTION_DDOT
SL-16 R/B,1994-077B,2026-07-16T15:47:43.786752,14.15574280,.0004091,70.9821,81.1617,302.2859,57.7867,0,U,23405,999,63448,.26841802E-4,.5E-7,0
ARIANE 40+ R/B,1995-021B,2026-07-16T10:33:18.217152,14.39847956,.00079292,98.4400,267.0904,113.3282,257.0468,0,U,23561,999,63777,.49811069E-4,.113E-5,0
SL-16 R/B,1995-058B,2026-07-16T14:24:57.992544,14.15509477,.00146244,71.0209,269.6046,281.0002,78.9476,0,U,23705,999,58609,.14621503E-3,.238E-5,0
SL-16 R/B,1996-051B,2026-07-16T11:48:47.255040,14.12456993,.00178875,70.7645,262.6323,296.4154,63.5129,0,U,24298,999,53983,.11069614E-3,.155E-5,0
ORBVIEW 2 (SEASTAR),1997-037A,2026-07-16T10:23:21.669216,14.35567092,.000306,98.8714,5.2664,58.4586,301.6897,0,U,24883,999,52694,.45064396E-4,.83E-6,0
SL-16 R/B,1998-043G,2026-07-16T11:31:36.306912,14.26072852,.00099559,98.8380,151.8942,7.8656,352.2678,0,U,25400,999,45734,.18365958E-4,-.2E-7,0
SL-16 R/B,1998-045B,2026-07-16T11:27:54.473184,14.16205054,.00081186,71.0107,270.7315,204.7449,155.3286,0,U,25407,999,44533,-.46621296E-4,-.14E-5,0
ISS (ZARYA),1998-067A,2026-07-16T08:19:43.906080,15.49022210,.00067534,51.6312,155.7848,302.1556,57.8777,0,U,25544,999,57627,.70974689E-4,.3465E-4,0
CZ-4B R/B,1999-025C,2026-07-16T02:59:53.235744,14.18287818,.00365861,98.6471,238.2330,337.0233,42.5941,0,U,25732,999,40637,.22978044E-4,.4E-7,0
OKEAN-O,1999-039A,2026-07-16T14:42:04.404672,14.80498340,.00008731,97.9301,256.0703,90.5104,269.6208,0,U,25860,999,45346,.40894118E-4,.261E-5,0
SL-16 R/B,1999-039B,2026-07-16T14:34:07.879296,14.81871578,.00144223,97.9823,256.3838,193.7470,166.3352,0,U,25861,999,45595,.35437409E-4,.227E-5,0
DELTA 2 R/B,1999-041E,2026-07-16T06:23:44.090592,14.12087498,.05014069,51.7611,147.6160,7.9199,352.9288,0,U,25876,999,38119,.21940862E-3,.1125E-4,0
HELIOS 1B,1999-064A,2026-07-16T07:04:45.140160,14.88076462,.00018677,98.1583,103.2743,53.0574,307.0812,0,U,25977,999,70438,.73595932E-4,.618E-5,0
TERRA,1999-068A,2026-07-16T14:53:44.057184,14.61124329,.0003471,97.9441,245.9975,119.7743,41.0394,0,U,25994,999,41390,.43068609E-4,.168E-5,0
SL-16 R/B,2000-006B,2026-07-16T09:14:39.032736,14.15837929,.00172297,71.0002,187.2308,338.3421,21.6972,0,U,26070,999,36677,-.13689532E-4,-.75E-6,0
TITAN 4B R/B,2000-047B,2026-07-16T14:20:18.292416,15.10336892,.00457922,67.9873,37.7794,257.3649,102.2379,0,U,26474,999,41237,.78924377E-4,.1186E-4,0
ENVISAT,2002-009A,2026-07-16T14:41:40.185024,14.39070894,.00013241,98.3846,148.2769,82.8224,90.1259,0,U,27386,999,27771,.19918959E-4,.19E-6,0
IDEFIX & ARIANE 42P R/B,2002-021B,2026-07-16T10:11:38.266080,14.31094045,.00119698,98.5942,134.5918,162.9059,197.2529,0,U,27422,999,26243,.48301806E-4,.84E-6,0
AQUA,2002-022A,2026-07-16T06:55:12.936288,14.62197882,.00009832,98.4296,167.1566,113.3067,21.1629,0,U,27424,999,28752,.7753175E-4,.341E-5,0
CZ-4B R/B,2002-024C,2026-07-16T14:34:41.441376,14.14568381,.00503989,98.8685,250.2340,18.0090,109.8005,0,U,27432,999,24746,.22407306E-4,-.1E-7,0
MIDORI II (ADEOS-II),2002-056A,2026-07-16T11:14:44.859264,14.29363387,.00014243,98.7895,156.9802,39.5466,320.5819,0,U,27597,999,22869,.52508668E-4,.88E-6,0
H-2A R/B,2002-056E,2026-07-16T11:16:56.499168,14.33834300,.00709536,98.3329,153.0798,137.1643,333.4106,0,U,27601,999,23256,.5406381E-4,.113E-5,0
CZ-4B R/B,2003-049C,2026-07-16T10:56:17.576736,14.55116533,.00477191,98.6910,197.4692,197.3743,162.5823,0,U,28059,999,20532,.38392837E-4,.116E-5,0
CZ-2C R/B,2004-012C,2026-07-16T04:36:00.251712,15.85417619,.00111568,97.7046,276.3698,187.7372,172.3727,0,U,28222,999,22448,.41105923E-3,.99037E-3,0
SL-16 R/B,2004-021B,2026-07-16T12:09:41.531616,14.14616513,.00062648,71.0029,322.1561,223.9967,136.0658,0,U,28353,999,14105,-.8158391E-5,-.63E-6,0
CZ-4B R/B,2004-035C,2026-07-16T13:08:23.081568,15.31002767,.00293421,97.3353,230.2959,227.6036,132.2723,0,U,28415,999,19961,.13428763E-3,.3995E-4,0
CZ-2C R/B,2004-046B,2026-07-16T15:22:32.452896,14.27033467,.01402054,98.1914,104.5765,133.1461,228.1544,0,U,28480,999,12689,.37845749E-4,.62E-6,0
ARIANE 5 R/B,2004-049H,2026-07-16T11:58:21.131616,14.85479624,.00825975,98.2742,10.8890,293.9957,65.2626,0,U,28499,999,16491,.28988549E-4,.199E-5,0
CZ-2D R/B,2005-024B,2026-07-16T07:47:04.762752,15.72846217,.00026192,97.3467,218.2783,189.5497,170.5717,0,U,28738,999,15991,.2972081E-3,.40167E-3,0
ALOS (DAICHI),2006-002A,2026-07-16T10:13:50.190240,14.70103207,.00008473,98.1339,152.9061,102.5582,257.5718,0,U,28931,999,9239,.84988448E-4,.461E-5,0
